{
  "norad_id": 51969,
  "name": "STARLINK-3680",
  "history": [
    {
      "epoch": "2026-03-28T20:58:48.206784Z",
      "apogee_km": 475.86773076842746,
      "perigee_km": 474.61973013741135,
      "latitude_deg": -2.5313806608126635e-06,
      "longitude_deg": 154.22258025512517,
      "height_km": 476.1317514372616,
      "semi_major_axis_km": 6853.380730452919,
      "eccentricity": 9.105e-05,
      "inclination_deg": 53.1598,
      "raan_deg": 295.2118,
      "arg_perigee_deg": 89.0346,
      "mean_anomaly_deg": 271.0759,
      "mean_motion_rev_day": 15.30190401
    },
    {
      "epoch": "2026-03-30T05:53:55.164768Z",
      "apogee_km": 476.1006834506088,
      "perigee_km": 474.38706409692986,
      "latitude_deg": 6.194719908238645e-05,
      "longitude_deg": 12.721518599541753,
      "height_km": 476.05692910235854,
      "semi_major_axis_km": 6853.380873773769,
      "eccentricity": 0.00012502,
      "inclination_deg": 53.1584,
      "raan_deg": 288.8416,
      "arg_perigee_deg": 84.3152,
      "mean_anomaly_deg": 275.7992,
      "mean_motion_rev_day": 15.30190353
    },
    {
      "epoch": "2026-03-30T13:44:11.313024Z",
      "apogee_km": 476.14427098222495,
      "perigee_km": 474.35169960547137,
      "latitude_deg": -3.889615368267346e-05,
      "longitude_deg": -106.68392834629319,
      "height_km": 476.1767812333467,
      "semi_major_axis_km": 6853.384985293847,
      "eccentricity": 0.00013078,
      "inclination_deg": 53.1589,
      "raan_deg": 287.3254,
      "arg_perigee_deg": 91.975,
      "mean_anomaly_deg": 268.14,
      "mean_motion_rev_day": 15.30188976
    },
    {
      "epoch": "2026-03-30T20:00:23.999904Z",
      "apogee_km": 476.1510718770296,
      "perigee_km": 474.32409928000743,
      "latitude_deg": -2.9477003784254972e-05,
      "longitude_deg": 157.79260938758316,
      "height_km": 476.2451343360783,
      "semi_major_axis_km": 6853.374585578518,
      "eccentricity": 0.00013329,
      "inclination_deg": 53.1589,
      "raan_deg": 286.1123,
      "arg_perigee_deg": 96.8951,
      "mean_anomaly_deg": 263.2201,
      "mean_motion_rev_day": 15.30192459
    },
    {
      "epoch": "2026-03-31T13:14:59.137440Z",
      "apogee_km": 476.15744724674914,
      "perigee_km": 474.3029260860385,
      "latitude_deg": -4.226452389051008e-05,
      "longitude_deg": -104.8982542706909,
      "height_km": 476.31743763511366,
      "semi_major_axis_km": 6853.3671866663935,
      "eccentricity": 0.0001353,
      "inclination_deg": 53.1587,
      "raan_deg": 282.776,
      "arg_perigee_deg": 101.7854,
      "mean_anomaly_deg": 258.3298,
      "mean_motion_rev_day": 15.30194937
    },
    {
      "epoch": "2026-04-01T12:45:47.291040Z",
      "apogee_km": 476.18741850220886,
      "perigee_km": 474.2876630795017,
      "latitude_deg": -2.2049526966747435e-05,
      "longitude_deg": -103.11593796313117,
      "height_km": 476.3282953030322,
      "semi_major_axis_km": 6853.374540790855,
      "eccentricity": 0.0001386,
      "inclination_deg": 53.1593,
      "raan_deg": 278.2246,
      "arg_perigee_deg": 101.7157,
      "mean_anomaly_deg": 258.3999,
      "mean_motion_rev_day": 15.30192474
    },
    {
      "epoch": "2026-04-01T12:45:47.291904Z",
      "apogee_km": 476.1874870359543,
      "perigee_km": 474.2875945457554,
      "latitude_deg": -2.295330453320842e-05,
      "longitude_deg": -103.11594224635888,
      "height_km": 476.32830921901325,
      "semi_major_axis_km": 6853.374540790855,
      "eccentricity": 0.00013861,
      "inclination_deg": 53.1593,
      "raan_deg": 278.2246,
      "arg_perigee_deg": 101.7157,
      "mean_anomaly_deg": 258.3999,
      "mean_motion_rev_day": 15.30192474
    },
    {
      "epoch": "2026-04-02T21:40:53.611392Z",
      "apogee_km": 476.0596267885021,
      "perigee_km": 474.33834292254596,
      "latitude_deg": -4.871835626572163e-05,
      "longitude_deg": 115.38359700949674,
      "height_km": 476.11391590898603,
      "semi_major_axis_km": 6853.335984855524,
      "eccentricity": 0.00012558,
      "inclination_deg": 53.1601,
      "raan_deg": 271.8524,
      "arg_perigee_deg": 91.1196,
      "mean_anomaly_deg": 268.9948,
      "mean_motion_rev_day": 15.30205387
    },
    {
      "epoch": "2026-04-03T18:03:35.375328Z",
      "apogee_km": 476.05413323055654,
      "perigee_km": 474.37506208912964,
      "latitude_deg": -4.0680433918181365e-05,
      "longitude_deg": 164.92538088789374,
      "height_km": 476.1890082698,
      "semi_major_axis_km": 6853.351597659843,
      "eccentricity": 0.0001225,
      "inclination_deg": 53.158,
      "raan_deg": 267.9051,
      "arg_perigee_deg": 95.2266,
      "mean_anomaly_deg": 264.8874,
      "mean_motion_rev_day": 15.30200158
    },
    {
      "epoch": "2026-04-03T21:11:41.650944Z",
      "apogee_km": 476.068354329117,
      "perigee_km": 474.3543319085029,
      "latitude_deg": -6.751257252917385e-05,
      "longitude_deg": 117.16485946848587,
      "height_km": 476.15232906185736,
      "semi_major_axis_km": 6853.34834311881,
      "eccentricity": 0.00012505,
      "inclination_deg": 53.1592,
      "raan_deg": 267.2995,
      "arg_perigee_deg": 92.8732,
      "mean_anomaly_deg": 267.2411,
      "mean_motion_rev_day": 15.30201248
    },
    {
      "epoch": "2026-04-05T10:48:59.461344Z",
      "apogee_km": 476.1376114967361,
      "perigee_km": 474.3858827769682,
      "latitude_deg": -1.2090603275062795e-05,
      "longitude_deg": -95.98407579034864,
      "height_km": 476.1502822157245,
      "semi_major_axis_km": 6853.398747136852,
      "eccentricity": 0.0001278,
      "inclination_deg": 53.16,
      "raan_deg": 260.0198,
      "arg_perigee_deg": 89.3769,
      "mean_anomaly_deg": 270.7378,
      "mean_motion_rev_day": 15.30184367
    },
    {
      "epoch": "2026-04-05T15:31:09.191424Z",
      "apogee_km": 476.14295687041795,
      "perigee_km": 474.3857447640685,
      "latitude_deg": 3.2307907142740415e-05,
      "longitude_deg": -167.62821820384212,
      "height_km": 476.17860431858867,
      "semi_major_axis_km": 6853.401350817243,
      "eccentricity": 0.0001282,
      "inclination_deg": 53.16,
      "raan_deg": 259.1093,
      "arg_perigee_deg": 91.0569,
      "mean_anomaly_deg": 269.0579,
      "mean_motion_rev_day": 15.30183495
    },
    {
      "epoch": "2026-04-05T15:31:09.192288Z",
      "apogee_km": 476.14275126837765,
      "perigee_km": 474.3859503661088,
      "latitude_deg": 3.507574626871884e-05,
      "longitude_deg": -167.6282197515445,
      "height_km": 476.1786005263746,
      "semi_major_axis_km": 6853.401350817243,
      "eccentricity": 0.00012817,
      "inclination_deg": 53.16,
      "raan_deg": 259.1093,
      "arg_perigee_deg": 91.0569,
      "mean_anomaly_deg": 269.0579,
      "mean_motion_rev_day": 15.30183495
    },
    {
      "epoch": "2026-04-07T09:50:35.102400Z",
      "apogee_km": 476.28800888205205,
      "perigee_km": 474.2093770013835,
      "latitude_deg": 4.237340653596232e-05,
      "longitude_deg": -92.41595675857323,
      "height_km": 476.1621471497525,
      "semi_major_axis_km": 6853.385692941717,
      "eccentricity": 0.00015165,
      "inclination_deg": 53.1597,
      "raan_deg": 250.9177,
      "arg_perigee_deg": 90.8691,
      "mean_anomaly_deg": 269.2484,
      "mean_motion_rev_day": 15.30188739
    },
    {
      "epoch": "2026-04-07T17:40:51.173760Z",
      "apogee_km": 476.171800670666,
      "perigee_km": 474.3213871003163,
      "latitude_deg": -3.31671153070926e-05,
      "longitude_deg": 148.17903509371627,
      "height_km": 476.13404670652005,
      "semi_major_axis_km": 6853.383593885491,
      "eccentricity": 0.000135,
      "inclination_deg": 53.1608,
      "raan_deg": 249.4016,
      "arg_perigee_deg": 89.3436,
      "mean_anomaly_deg": 270.7719,
      "mean_motion_rev_day": 15.30189442
    },
    {
      "epoch": "2026-04-08T14:03:32.681952Z",
      "apogee_km": 476.1345510677593,
      "perigee_km": 474.34225633218284,
      "latitude_deg": -2.1868727249928736e-05,
      "longitude_deg": -162.27591267163942,
      "height_km": 476.1925720392701,
      "semi_major_axis_km": 6853.375403699971,
      "eccentricity": 0.00013076,
      "inclination_deg": 53.1596,
      "raan_deg": 245.4565,
      "arg_perigee_deg": 93.5946,
      "mean_anomaly_deg": 266.5204,
      "mean_motion_rev_day": 15.30192185
    },
    {
      "epoch": "2026-04-09T08:52:10.975008Z",
      "apogee_km": 476.1090375543881,
      "perigee_km": 474.37499559561456,
      "latitude_deg": -3.8047529428899934e-05,
      "longitude_deg": -88.84870688959575,
      "height_km": 476.1872828698671,
      "semi_major_axis_km": 6853.379016575001,
      "eccentricity": 0.00012651,
      "inclination_deg": 53.1592,
      "raan_deg": 241.8158,
      "arg_perigee_deg": 93.1251,
      "mean_anomaly_deg": 266.9894,
      "mean_motion_rev_day": 15.30190975
    },
    {
      "epoch": "2026-04-11T20:25:12.018720Z",
      "apogee_km": 474.4567369118222,
      "perigee_km": 472.3642743036107,
      "latitude_deg": -1.8135003247939888e-06,
      "longitude_deg": 83.91712225891571,
      "height_km": 474.9382377421739,
      "semi_major_axis_km": 6851.547505607717,
      "eccentricity": 0.0001527,
      "inclination_deg": 53.1635,
      "raan_deg": 230.2816,
      "arg_perigee_deg": 126.9555,
      "mean_anomaly_deg": 233.1586,
      "mean_motion_rev_day": 15.30804577
    },
    {
      "epoch": "2026-04-13T06:00:02.000160Z",
      "apogee_km": 471.60984414437644,
      "perigee_km": 469.9995209759727,
      "latitude_deg": 17.490134428764808,
      "longitude_deg": 98.74121970119911,
      "height_km": 470.58194639847267,
      "semi_major_axis_km": 6848.941682560174,
      "eccentricity": 0.00011756,
      "inclination_deg": 53.1593,
      "raan_deg": 223.7714,
      "arg_perigee_deg": 108.1234,
      "mean_anomaly_deg": 49.845,
      "mean_motion_rev_day": 15.316783
    },
    {
      "epoch": "2026-04-14T20:00:01.999008Z",
      "apogee_km": 471.4340332573656,
      "perigee_km": 470.0300151074089,
      "latitude_deg": -50.30372993951433,
      "longitude_deg": -42.77518705067798,
      "height_km": 488.74755634024353,
      "semi_major_axis_km": 6848.869024182387,
      "eccentricity": 0.0001025,
      "inclination_deg": 53.1602,
      "raan_deg": 216.402,
      "arg_perigee_deg": 96.8511,
      "mean_anomaly_deg": 156.6931,
      "mean_motion_rev_day": 15.31702674
    },
    {
      "epoch": "2026-04-15T20:00:01.999008Z",
      "apogee_km": 471.41137788961623,
      "perigee_km": 470.021060686101,
      "latitude_deg": 8.563316353712267,
      "longitude_deg": 74.18958402127781,
      "height_km": 470.7952164043886,
      "semi_major_axis_km": 6848.853219287858,
      "eccentricity": 0.0001015,
      "inclination_deg": 53.161,
      "raan_deg": 211.7464,
      "arg_perigee_deg": 91.2578,
      "mean_anomaly_deg": 279.5096,
      "mean_motion_rev_day": 15.31707976
    }
  ]
}